OPS 6582 (TRANSIT 5B-5) 
1 00965U 64083D   24352.62595896  .00000123  00000+0  15898-3 0  9996
2 00965  90.0508 199.2747 0043252  76.9095 343.2286 13.56933503969487
LES-1                   
1 01002U 65008C   24352.82178175  .00000030  00000+0  29001-2 0  9993
2 01002  32.1428 259.0303 0014696 101.3366 258.8783  9.88354560162135
SOLRAD 7B               
1 01291U 65016D   24352.84735466  .00000110  00000+0  12031-3 0  9991
2 01291  70.0793 317.7075 0018484 122.9075 237.3812 13.94865048 40516
SECOR 4 (EGRS 4)        
1 01315U 65027B   24352.81230205  .00000006  00000+0 -62384-5 0  9991
2 01315  90.2385   3.3566 0030971 183.9485 350.1470 12.92650482816330
TIROS 10                
1 01430U 65051A   24352.82299139  .00000558  00000+0  18359-3 0  9990
2 01430  98.4534 105.4086 0054455 280.2550  79.2501 14.41219503117207
ALOUETTE 2              
1 01804U 65098A   24352.81521439  .00001596  00000+0  53133-3 0  9998
2 01804  79.8037  21.1815 1332843 259.7073  85.1482 12.27536868612212
OV3-3                   
1 02389U 66070A   24352.83576037  .00019065  00000+0  91390-3 0  9991
2 02389  81.3315  87.0648 1083378 118.4424 253.0165 13.28756022525934
SECOR 7 (EGRS 7)        
1 02411U 66077B   24352.74744964  .00000019  00000+0  85811-2 0  9999
2 02411  90.3366 271.0542 0013161 250.2209 109.7223  8.59615451830425
ERS 15                  
1 02412U 66077C   24352.75504095  .00000002  00000+0  00000+0 0  9996
2 02412  90.3363 270.8505 0007618 257.2449 102.7551  8.59077586343531
ISIS 1                  
1 03669U 69009A   24352.87615264  .00000447  00000+0  32531-3 0  9994
2 03669  88.4463 204.0312 1707843 271.1320  69.5491 11.30121341298052
SECOR 13 (EGRS 13)      
1 03891U 69037B   24352.92432662  .00000011  00000+0  92981-4 0  9990
2 03891  99.7278 234.9094 0039835 150.0736 221.4104 13.42944394728437
ATS 5                   
1 04068U 69069A   24352.62326737  .00000100  00000+0  00000+0 0  9999
2 04068   1.3538 263.3300 0005393   3.1907 279.7630  0.99488815 40883
OPS 7613 (P/L 4)        
1 04237U 69082E   24352.87590190  .00000120  00000+0  12634-3 0  9997
2 04237  70.0131 190.8298 0018131 127.5437 327.2096 13.95855954810068
OPS 7613 (P/L 1)        
1 04256U 69082B   24352.88239987  .00000260  00000+0  21692-3 0  9992
2 04256  70.0104  58.4096 0016687  54.4432 305.8228 13.98947663814055
SHINSEI (MS-F2)         
1 05485U 71080A   24352.57207610  .00000120  00000+0  21681-3 0  9995
2 05485  32.0554 308.2984 0639785  24.9102 338.1011 12.74220559479502
PROSPERO (BLACK ARROW)  
1 05580U 71093A   24352.91511596  .00003195  00000+0  69666-3 0  9994
2 05580  82.0400  49.6042 0509115 351.5519   7.7303 13.99503410672054
OPS 7898 (P/L 2)        
1 05680U 71110C   24352.88725459  .00000047  00000+0  10206-3 0  9995
2 05680  69.9906  50.2666 0006063 155.1280 205.0107 13.74686881273135
NOAA 2 (ITOS-D)         
1 06235U 72082A   24352.85442522 -.00000029  00000+0  10915-3 0  9993
2 06235 102.0226 353.9888 0004162 130.4906 300.7440 12.53192421386512
EXPLORER 50 (IMP-8)     
1 06893U 73078A   24344.60074536 -.00000726  00000+0  00000+0 0  9993
2 06893   6.6978 189.9430 1380793   8.7271   8.6182  0.08283698 11443
OSCAR 7 (AO-7)          
1 07530U 74089B   24352.84615994 -.00000036  00000+0  62191-4 0  9997
2 07530 101.9900 349.2908 0012391  93.6981 333.9342 12.53683913292050
TIROS N                 
1 11060U 78096A   24352.83081030  .00000405  00000+0  21390-3 0  9993
2 11060  98.5108  26.1864 0010913  30.4639 329.7169 14.19047551601255
PHASE 3B (AO-10)        
1 14129U 83058B   24352.00653517 -.00000462  00000+0  00000+0 0  9995
2 14129  27.2495 310.3123 6042278 325.5734   6.9725  2.05873126284220
HILAT                   
1 14154U 83063A   24352.89847281  .00001000  00000+0  32252-3 0  9995
2 14154  82.0240 308.7091 0040470 143.6799 243.3473 14.38010264169051
UOSAT 2 (UO-11)         
1 14781U 84021B   24352.87523838  .00003290  00000+0  36173-3 0  9992
2 14781  97.7315 317.0738 0007571 178.5237 181.6003 14.88270668175795
NOAA 9                  
1 15427U 84123A   24352.87244744  .00000325  00000+0  18523-3 0  9994
2 15427  99.1242 354.9055 0015648  96.3284 330.6216 14.16798686 66059
GEOSAT                  
1 15595U 85021A   24352.82560046  .00000526  00000+0  21223-3 0  9993
2 15595 108.0593  24.4127 0002696 275.9285  84.1550 14.39423011 84131
EUTELSAT 1-F4 (ECS 4)   
1 18351U 87078B   24352.70545831 -.00000168  00000+0  00000+0 0  9991
2 18351  14.2197 345.9694 0007784  16.3547 165.3143  0.98690544121367
PACSAT (AO-16)          
1 20439U 90005D   24352.96571644  .00000422  00000+0  16922-3 0  9990
2 20439  98.8984   3.2684 0011290  38.1383 336.5319 14.33623017823663
LUSAT (LO-19)           
1 20442U 90005G   24352.49466675  .00000426  00000+0  16982-3 0  9999
2 20442  98.8946 347.7381 0011904  13.9459 346.2051 14.33796188824046
IRS-1B                  
1 21688U 91061A   24352.96253795  .00000418  00000+0  32806-3 0  9998
2 21688  99.3855 336.8562 0025214  49.4568 325.4305 13.97725377592187
COSMOS 2197             
1 22034U 92042A   24352.92513711  .00000054  00000+0  23713-3 0  9990
2 22034  82.5942 217.9873 0013434  77.1775 293.6062 12.64226837496265
PEGASUS R/B             
1 22491U 93009C   24352.88775099  .00002662  00000+0  53589-3 0  9996
2 22491  24.9783 284.5465 0045078 340.5989  19.2807 14.56495680689850
EYESAT A (AO-27)        
1 22825U 93061C   24352.71335441  .00000311  00000+0  13617-3 0  9997
2 22825  98.7645  47.1849 0007372 260.9555  99.0793 14.30682858628855
ITAMSAT (IO-26)         
1 22826U 93061D   24352.71174355  .00000347  00000+0  14901-3 0  9999
2 22826  98.7591  47.0546 0007981 243.6021 116.4343 14.31083926629141
RADIO ROSTO (RS-15)     
1 23439U 94085A   24352.70143060 -.00000052  00000+0 -28145-3 0  9995
2 23439  64.8162 106.9949 0146155 108.4650 253.2221 11.27580366234289
JAS-2 (FO-29)           
1 24278U 96046B   24352.70771100  .00000057  00000+0  91705-4 0  9994
2 24278  98.5885 263.3418 0350901  73.0003 290.9273 13.53225886399259
FORTE                   
1 24920U 97047A   24352.92084239  .00000557  00000+0  24956-3 0  9992
2 24920  69.9517 167.5072 0024854 298.9886  60.8745 14.27485548420719
NOAA 15                 
1 25338U 98030A   24352.91020980  .00000395  00000+0  18048-3 0  9996
2 25338  98.5526  16.0810 0010905 143.0735 217.1199 14.26828343383388
TECHSAT 1B (GO-32)      
1 25397U 98043D   24352.89141740  .00000256  00000+0  13123-3 0  9995
2 25397  98.9486 322.6121 0001551  31.6396 328.4875 14.24213431373565
ISS (ZARYA)             
1 25544U 98067A   24352.91684517  .00016472  00000+0  28866-3 0  9999
2 25544  51.6386 125.0885 0007506 353.4814 153.0835 15.50692977487045
ORSTED                  
1 25635U 99008B   24352.64501468  .00001219  00000+0  28327-3 0  9994
2 25635  96.4472  14.9976 0134852 138.7384 222.4103 14.50627438362698
LANDSAT 7               
1 25682U 99020A   24352.91448351  .00001055  00000+0  22285-3 0  9996
2 25682  97.8738  10.9581 0001619  98.2302 346.2219 14.61229670365966
ORBCOMM FM36            
1 25984U 99065E   24352.69682633  .00002406  00000+0  84837-3 0  9990
2 25984  45.0376 230.4296 0003669 100.5500 259.5762 14.37187586308306
DMSP 5D-3 F15 (USA 147) 
1 25991U 99067A   24352.94007042  .00000381  00000+0  21144-3 0  9995
2 25991  99.0552  11.8659 0010779 113.4061   6.4342 14.17238817293261
OPAL (OO-38)            
1 26063U 00004C   24352.77474134  .00000449  00000+0  16816-3 0  9995
2 26063 100.2251 177.1963 0036356 137.9929 222.4050 14.37627231304768
IMAGE                   
1 26113U 00017A   24352.01109922  .00000198  00000+0  12193-1 0  9995
2 26113  93.9857 306.6397 7637740 353.8357   0.2368  1.68650060152276
CLUSTER II-FM7 (SAMBA)  
1 26410U 00041A   24354.48513691  .00001224  00000+0  00000+0 0  9990
2 26410 141.6109   3.7677 7952636 218.9662 359.5945  0.44791967 29625
CLUSTER II-FM5 (RUMBA)  
1 26463U 00045A   24354.33732558  .00008079  00000+0  00000+0 0  9996
2 26463 153.5385  43.1694 8896067 259.8340 359.4396  0.42899497 17789
CLUSTER II-FM8 (TANGO)  
1 26464U 00045B   24354.56912434  .00001246  00000+0  00000+0 0  9994
2 26464 141.8254   4.0531 7954319 219.1124 359.5914  0.44418426 17883
MEGSAT-1                
1 26546U 00057B   24352.78018304  .00006743  00000+0  55123-3 0  9990
2 26546  64.5532  13.4957 0010137 255.0283 104.9709 15.00083868315532
PHASE 3D (AO-40)        
1 26609U 00072B   24350.30423149 -.00000287  00000+0  00000+0 0  9998
2 26609   8.2008  67.4805 7992786  12.6030 359.1906  1.25589320110755
ODIN                    
1 26702U 01007A   24352.79617148  .00023984  00000+0  79555-3 0  9993
2 26702  97.4649   8.1410 0006939   8.1819 351.9534 15.31228658304914
OMNI-M1                 
1 26857U 01026A   24352.43395281 -.00000058  00000+0  00000+0 0  9990
2 26857  45.0151  10.9822 0017875 273.9679  85.8692  3.92401636184116
PCSAT (NO-44)           
1 26931U 01043C   24352.90343830  .00000427  00000+0  19145-3 0  9990
2 26931  67.0495 216.8233 0006671 260.4546  99.5802 14.31543482212245
PROBA-1                 
1 26958U 01049B   24352.90367857  .00005306  00000+0  37903-3 0  9993
2 26958  97.9341 333.4463 0059461 164.9858 195.3149 15.03512402261416
SPOT 5                  
1 27421U 02021A   24352.71274075  .00001337  00000+0  29377-3 0  9994
2 27421  98.0642  42.6411 0131451 173.4107 186.8858 14.53916055183413
FENGYUN 1D              
1 27431U 02024B   24352.88149333  .00000130  00000+0  99167-4 0  9999
2 27431  99.0320  32.3936 0015034 341.6956  18.3671 14.10082941162482
SAUDISAT 1C (SO-50)     
1 27607U 02058C   24352.55676750  .00003015  00000+0  40688-3 0  9991
2 27607  64.5552  17.2845 0035388  21.5452 338.7132 14.80522393183459
CORIOLIS                
1 27640U 03001A   24352.76647310  .00000354  00000+0  18787-3 0  9998
2 27640  98.7138 357.0810 0013912 350.9588   9.1335 14.19665729136680
